OBJECT_NAME,OBJECT_ID,EPOCH,MEAN_MOTION,ECCENTRICITY,INCLINATION,RA_OF_ASC_NODE,ARG_OF_PERICENTER,MEAN_ANOMALY,EPHEMERIS_TYPE,CLASSIFICATION_TYPE,NORAD_CAT_ID,ELEMENT_SET_NO,REV_AT_EPOCH,BSTAR,MEAN_MOTION_DOT,MEAN_MOTION_DDOT
GSAT-30,2020-005A,2026-07-23T13:22:46.698816,1.00272730,.00034094,0.0112,321.3625,131.4400,132.1970,0,U,45026,999,2387,0,-.16E-5,0
EUTELSAT KONNECT,2020-005B,2026-07-23T02:45:15.587136,1.00279086,.00018433,0.0665,96.3359,116.2133,136.8228,0,U,45027,999,2469,0,.55E-6,0
STARLINK-1132,2020-006A,2026-07-23T16:00:01.999584,15.67788827,.00016986,53.1487,320.3638,76.4099,289.8001,0,U,45044,999,595,.30291713E-3,.33474E-3,0
STARLINK-1131,2020-006D,2026-07-23T10:59:40.113024,15.60045119,.00007259,53.1544,355.3561,25.5893,334.5156,0,U,45047,999,35754,.75179338E-3,.61949E-3,0
STARLINK-1134,2020-006E,2026-07-23T00:14:22.932960,15.63811565,.00051191,53.0225,304.7530,257.1018,102.9424,0,U,45048,999,35818,.50243054E-3,.47718E-3,0
STARLINK-1156,2020-006L,2026-07-23T10:46:37.577856,15.38723168,.00023049,53.1596,7.1987,146.3139,213.8013,0,U,45054,999,35737,.11295003E-2,.43728E-3,0
STARLINK-1166,2020-006S,2026-07-23T13:23:03.410304,15.69777808,.00021982,53.0430,334.0878,345.2713,14.8239,0,U,45060,999,35782,.41960916E-3,.50709E-3,0
STARLINK-1169,2020-006T,2026-07-22T11:19:39.312192,15.42338192,.00034752,53.1547,9.2497,112.6135,247.5239,0,U,45061,999,35726,.1066932E-2,.46584E-3,0
STARLINK-1171,2020-006U,2026-07-22T18:09:17.812224,15.81490077,.00035024,53.0362,299.6630,3.3489,356.7555,0,U,45062,999,35823,.5090882E-3,.103974E-2,0
STARLINK-1133,2020-006W,2026-07-22T18:33:14.480064,15.38537153,.00023606,53.1561,347.1830,136.2914,223.8278,0,U,45064,999,35760,.11277075E-2,.4339E-3,0
STARLINK-1167,2020-006AD,2026-07-23T09:53:53.777472,15.41381708,.0001988,53.1567,342.3853,40.3554,319.7599,0,U,45071,999,35772,.12369531E-2,.524E-3,0
STARLINK-1168,2020-006AE,2026-07-22T17:47:42.679680,15.39096899,.00019181,53.1572,347.4039,136.0339,224.0818,0,U,45072,999,35759,.10333018E-2,.40447E-3,0
STARLINK-1172,2020-006AG,2026-07-22T16:36:11.336832,15.42363134,.00017598,53.1538,344.7885,73.1539,286.9660,0,U,45074,999,35762,.10311287E-2,.4503E-3,0
STARLINK-1153,2020-006AN,2026-07-23T09:27:33.471360,15.41444890,.0003295,53.1572,342.3745,71.6102,288.5261,0,U,45080,999,35772,.12280561E-2,.52133E-3,0
STARLINK-1151,2020-006AP,2026-07-23T14:04:18.747840,16.10423786,.00130793,53.0396,277.9973,352.9906,7.0943,0,U,45081,999,35860,.65231557E-3,.654994E-2,.23990934E-3
STARLINK-1185,2020-006AV,2026-07-23T08:02:02.843232,15.50994869,.00007427,53.1565,319.8473,221.2613,138.8341,0,U,45087,999,35803,.10582845E-2,.62521E-3,0
STARLINK-1183,2020-006AW,2026-07-23T07:40:45.888384,15.38472718,.00010875,53.1566,329.4563,177.6957,182.4053,0,U,45088,999,35789,.99152253E-3,.37993E-3,0
STARLINK-1152,2020-006BE,2026-07-22T22:20:49.480800,15.54245802,.00045921,53.0304,280.7997,321.6619,38.4064,0,U,45096,999,35851,.94804795E-3,.6299E-3,0
STARLINK-1184,2020-006BG,2026-07-22T18:57:18.573120,15.16134701,.00036022,53.0511,352.3769,172.2420,187.8629,0,U,45098,999,35749,.10545957E-2,.20327E-3,0
STARLINK-1193,2020-006BJ,2026-07-23T14:18:15.446304,15.72739140,.00049754,53.0436,283.2710,66.7239,293.4302,0,U,45100,999,35853,.45583416E-3,.62624E-3,0
ONEWEB-0013,2020-008A,2026-07-23T07:29:47.682816,13.09461852,.0000795,87.8496,45.5302,87.6936,272.4282,0,U,45131,999,31079,.1965604E-2,.69E-5,0
ONEWEB-0017,2020-008B,2026-07-23T11:58:03.221760,13.10376064,.00019909,87.8818,29.0307,90.6225,269.5130,0,U,45132,999,31270,.17526822E-2,.625E-5,0
ONEWEB-0020,2020-008C,2026-07-23T11:14:02.640768,13.10372952,.00017621,87.8834,29.0371,88.9661,271.1668,0,U,45133,999,31309,-.17027676E-2,-.582E-5,0
ONEWEB-0021,2020-008D,2026-07-23T11:36:02.554560,13.10375428,.00017792,87.8823,29.0481,91.4261,268.7070,0,U,45134,999,31340,-.48437841E-4,-.4E-7,0
ONEWEB-0023,2020-008F,2026-07-23T11:51:57.005856,13.10373857,.00017139,87.8826,29.0299,83.8421,276.2902,0,U,45136,999,31283,.14786065E-2,.529E-5,0
ONEWEB-0024,2020-008G,2026-07-23T11:11:47.353920,13.10372856,.00018376,87.8828,29.0297,90.9973,269.1364,0,U,45137,999,31299,-.1776391E-2,-.607E-5,0
ONEWEB-0025,2020-008H,2026-07-23T11:11:23.568864,13.10372625,.00020409,87.8835,29.0198,77.6405,282.4951,0,U,45138,999,31332,-.17711444E-2,-.606E-5,0
ONEWEB-0026,2020-008J,2026-07-23T00:26:03.756192,13.11384221,.00016121,87.8887,13.9329,100.2893,259.8417,0,U,45139,999,31580,-.36372622E-2,-.1276E-4,0
ONEWEB-0028,2020-008K,2026-07-23T10:49:28.059744,13.11523869,.00013704,87.8895,13.8535,88.6438,271.4847,0,U,45140,999,31337,.22496237E-1,.8005E-4,0
ONEWEB-0032,2020-008L,2026-07-23T12:00:42.611616,13.10373840,.00012678,87.8823,29.0326,82.7215,277.4056,0,U,45141,999,31305,.170299E-2,.607E-5,0
