GSAT-30                 
1 45026U 20005A   26204.55748494 -.00000160  00000+0  00000+0 0  9990
2 45026   0.0112 321.3625 0003409 131.4400 132.1970  1.00272730 23879
EUTELSAT KONNECT        
1 45027U 20005B   26204.11476374  .00000055  00000+0  00000+0 0  9990
2 45027   0.0665  96.3359 0001843 116.2133 136.8228  1.00279086 24699
STARLINK-1132           
1 45044U 20006A   26204.66668981  .00033474  00000+0  30292-3 0  9998
2 45044  53.1487 320.3638 0001698  76.4099 289.8001 15.67788827  5957
STARLINK-1131           
1 45047U 20006D   26204.45810316  .00061949  00000+0  75179-3 0  9990
2 45047  53.1544 355.3561 0000725  25.5893 334.5156 15.60045119357541
STARLINK-1134           
1 45048U 20006E   26204.00998765  .00047718  00000+0  50243-3 0  9990
2 45048  53.0225 304.7530 0005119 257.1018 102.9424 15.63811565358180
STARLINK-1156           
1 45054U 20006L   26204.44904604  .00043728  00000+0  11295-2 0  9994
2 45054  53.1596   7.1987 0002304 146.3139 213.8013 15.38723168357374
STARLINK-1166           
1 45060U 20006S   26204.55767836  .00050709  00000+0  41961-3 0  9998
2 45060  53.0430 334.0878 0002198 345.2713  14.8239 15.69777808357820
STARLINK-1169           
1 45061U 20006T   26203.47198278  .00046584  00000+0  10669-2 0  9993
2 45061  53.1547   9.2497 0003475 112.6135 247.5239 15.42338192357265
STARLINK-1171           
1 45062U 20006U   26203.75645616  .00103974  00000+0  50909-3 0  9997
2 45062  53.0362 299.6630 0003502   3.3489 356.7555 15.81490077358239
STARLINK-1133           
1 45064U 20006W   26203.77308426  .00043390  00000+0  11277-2 0  9995
2 45064  53.1561 347.1830 0002360 136.2914 223.8278 15.38537153357609
STARLINK-1167           
1 45071U 20006AD  26204.41242798  .00052400  00000+0  12370-2 0  9991
2 45071  53.1567 342.3853 0001988  40.3554 319.7599 15.41381708357726
STARLINK-1168           
1 45072U 20006AE  26203.74146620  .00040447  00000+0  10333-2 0  9999
2 45072  53.1572 347.4039 0001918 136.0339 224.0818 15.39096899357590
STARLINK-1172           
1 45074U 20006AG  26203.69179788  .00045030  00000+0  10311-2 0  9995
2 45074  53.1538 344.7885 0001759  73.1539 286.9660 15.42363134357628
STARLINK-1153           
1 45080U 20006AN  26204.39413740  .00052133  00000+0  12281-2 0  9999
2 45080  53.1572 342.3745 0003295  71.6102 288.5261 15.41444890357722
STARLINK-1151           
1 45081U 20006AP  26204.58632810  .00654994  23991-3  65232-3 0  9998
2 45081  53.0396 277.9973 0013079 352.9906   7.0943 16.10423786358607
STARLINK-1185           
1 45087U 20006AV  26204.33475513  .00062521  00000+0  10583-2 0  9991
2 45087  53.1565 319.8473 0000742 221.2613 138.8341 15.50994869358039
STARLINK-1183           
1 45088U 20006AW  26204.31997556  .00037993  00000+0  99152-3 0  9991
2 45088  53.1566 329.4563 0001087 177.6957 182.4053 15.38472718357894
STARLINK-1152           
1 45096U 20006BE  26203.93112825  .00062990  00000+0  94805-3 0  9990
2 45096  53.0304 280.7997 0004592 321.6619  38.4064 15.54245802358514
STARLINK-1184           
1 45098U 20006BG  26203.78979830  .00020327  00000+0  10546-2 0  9999
2 45098  53.0511 352.3769 0003602 172.2420 187.8629 15.16134701357495
STARLINK-1193           
1 45100U 20006BJ  26204.59601211  .00062624  00000+0  45583-3 0  9994
2 45100  53.0436 283.2710 0004975  66.7239 293.4302 15.72739140358530
ONEWEB-0013             
1 45131U 20008A   26204.31235744  .00000690  00000+0  19656-2 0  9990
2 45131  87.8496  45.5302 0000795  87.6936 272.4282 13.09461852310793
ONEWEB-0017             
1 45132U 20008B   26204.49864840  .00000625  00000+0  17527-2 0  9998
2 45132  87.8818  29.0307 0001990  90.6225 269.5130 13.10376064312701
ONEWEB-0020             
1 45133U 20008C   26204.46808612 -.00000582  00000+0 -17028-2 0  9991
2 45133  87.8834  29.0371 0001762  88.9661 271.1668 13.10372952313092
ONEWEB-0021             
1 45134U 20008D   26204.48336290 -.00000004  00000+0 -48438-4 0  9992
2 45134  87.8823  29.0481 0001779  91.4261 268.7070 13.10375428313401
ONEWEB-0023             
1 45136U 20008F   26204.49440979  .00000529  00000+0  14786-2 0  9992
2 45136  87.8826  29.0299 0001713  83.8421 276.2902 13.10373857312832
ONEWEB-0024             
1 45137U 20008G   26204.46652030 -.00000607  00000+0 -17764-2 0  9991
2 45137  87.8828  29.0297 0001837  90.9973 269.1364 13.10372856312999
ONEWEB-0025             
1 45138U 20008H   26204.46624501 -.00000606  00000+0 -17711-2 0  9995
2 45138  87.8835  29.0198 0002040  77.6405 282.4951 13.10372625313329
ONEWEB-0026             
1 45139U 20008J   26204.01809903 -.00001276  00000+0 -36373-2 0  9997
2 45139  87.8887  13.9329 0001612 100.2893 259.8417 13.11384221315809
ONEWEB-0028             
1 45140U 20008K   26204.45101921  .00008005  00000+0  22496-1 0  9997
2 45140  87.8895  13.8535 0001370  88.6438 271.4847 13.11523869313373
ONEWEB-0032             
1 45141U 20008L   26204.50049319  .00000607  00000+0  17030-2 0  9995
2 45141  87.8823  29.0326 0001267  82.7215 277.4056 13.10373840313059
